[
    {
        "OBJECT_NAME": "COSMOS 2443 [GLONASS-M]",
        "OBJECT_ID": "2008-046B",
        "EPOCH": "2025-03-08T06:35:52.967904",
        "MEAN_MOTION": 2.13098289,
        "ECCENTRICITY": 0.001207,
        "INCLINATION": 65.7259,
        "RA_OF_ASC_NODE": 330.6734,
        "ARG_OF_PERICENTER": 176.0162,
        "MEAN_ANOMALY": 289.5523,
        "EPHEMERIS_TYPE": 0,
        "CLASSIFICATION_TYPE": "U",
        "NORAD_CAT_ID": 33379,
        "ELEMENT_SET_NO": 999,
        "REV_AT_EPOCH": 12802,
        "BSTAR": 0,
        "MEAN_MOTION_DOT": -7.6e-07,
        "MEAN_MOTION_DDOT": 0
    },
    {
        "OBJECT_NAME": "COSMOS 2444 [GLONASS-M]",
        "OBJECT_ID": "2008-046C",
        "EPOCH": "2025-03-09T02:35:38.722848",
        "MEAN_MOTION": 2.13112157,
        "ECCENTRICITY": 0.0019485,
        "INCLINATION": 65.7342,
        "RA_OF_ASC_NODE": 330.6926,
        "ARG_OF_PERICENTER": 294.6909,
        "MEAN_ANOMALY": 243.3313,
        "EPHEMERIS_TYPE": 0,
        "CLASSIFICATION_TYPE": "U",
        "NORAD_CAT_ID": 33380,
        "ELEMENT_SET_NO": 999,
        "REV_AT_EPOCH": 12803,
        "BSTAR": 0,
        "MEAN_MOTION_DOT": -7.5e-07,
        "MEAN_MOTION_DDOT": 0
    },
    {
        "OBJECT_NAME": "COSMOS 2447 [GLONASS-M]",
        "OBJECT_ID": "2008-067A",
        "EPOCH": "2025-03-10T05:00:34.214976",
        "MEAN_MOTION": 2.13107751,
        "ECCENTRICITY": 0.0008716,
        "INCLINATION": 64.5465,
        "RA_OF_ASC_NODE": 85.3344,
        "ARG_OF_PERICENTER": 261.4324,
        "MEAN_ANOMALY": 118.7402,
        "EPHEMERIS_TYPE": 0,
        "CLASSIFICATION_TYPE": "U",
        "NORAD_CAT_ID": 33466,
        "ELEMENT_SET_NO": 999,
        "REV_AT_EPOCH": 12608,
        "BSTAR": 0,
        "MEAN_MOTION_DOT": 4.3e-07,
        "MEAN_MOTION_DDOT": 0
    },
    {
        "OBJECT_NAME": "COSMOS 2449 [GLONASS-M]",
        "OBJECT_ID": "2008-067B",
        "EPOCH": "2025-03-10T05:53:24.732096",
        "MEAN_MOTION": 2.13097327,
        "ECCENTRICITY": 0.0033472,
        "INCLINATION": 64.5355,
        "RA_OF_ASC_NODE": 85.2468,
        "ARG_OF_PERICENTER": 238.9432,
        "MEAN_ANOMALY": 120.7801,
        "EPHEMERIS_TYPE": 0,
        "CLASSIFICATION_TYPE": "U",
        "NORAD_CAT_ID": 33467,
        "ELEMENT_SET_NO": 999,
        "REV_AT_EPOCH": 12607,
        "BSTAR": 0,
        "MEAN_MOTION_DOT": 4.3e-07,
        "MEAN_MOTION_DDOT": 0
    },
    {
        "OBJECT_NAME": "COSMOS 2448 [GLONASS-M]",
        "OBJECT_ID": "2008-067C",
        "EPOCH": "2025-03-10T00:33:12.889440",
        "MEAN_MOTION": 2.13116284,
        "ECCENTRICITY": 0.0003247,
        "INCLINATION": 64.5418,
        "RA_OF_ASC_NODE": 85.2733,
        "ARG_OF_PERICENTER": 261.1108,
        "MEAN_ANOMALY": 98.905,
        "EPHEMERIS_TYPE": 0,
        "CLASSIFICATION_TYPE": "U",
        "NORAD_CAT_ID": 33468,
        "ELEMENT_SET_NO": 999,
        "REV_AT_EPOCH": 12614,
        "BSTAR": 0,
        "MEAN_MOTION_DOT": 4.2e-07,
        "MEAN_MOTION_DDOT": 0
    },
    {
        "OBJECT_NAME": "COSMOS 2456 [GLONASS-M]",
        "OBJECT_ID": "2009-070A",
        "EPOCH": "2025-03-09T18:13:06.612384",
        "MEAN_MOTION": 2.13103654,
        "ECCENTRICITY": 0.0006296,
        "INCLINATION": 64.7445,
        "RA_OF_ASC_NODE": 86.8476,
        "ARG_OF_PERICENTER": 303.1351,
        "MEAN_ANOMALY": 57.6364,
        "EPHEMERIS_TYPE": 0,
        "CLASSIFICATION_TYPE": "U",
        "NORAD_CAT_ID": 36111,
        "ELEMENT_SET_NO": 999,
        "REV_AT_EPOCH": 11853,
        "BSTAR": 0,
        "MEAN_MOTION_DOT": 4.2e-07,
        "MEAN_MOTION_DDOT": 0
    },
    {
        "OBJECT_NAME": "COSMOS 2457 [GLONASS-M]",
        "OBJECT_ID": "2009-070B",
        "EPOCH": "2025-03-08T06:30:21.617856",
        "MEAN_MOTION": 2.13101057,
        "ECCENTRICITY": 0.0002843,
        "INCLINATION": 64.7286,
        "RA_OF_ASC_NODE": 86.7518,
        "ARG_OF_PERICENTER": 199.0679,
        "MEAN_ANOMALY": 231.8432,
        "EPHEMERIS_TYPE": 0,
        "CLASSIFICATION_TYPE": "U",
        "NORAD_CAT_ID": 36112,
        "ELEMENT_SET_NO": 999,
        "REV_AT_EPOCH": 11850,
        "BSTAR": 0,
        "MEAN_MOTION_DOT": 3.2e-07,
        "MEAN_MOTION_DDOT": 0
    },
    {
        "OBJECT_NAME": "COSMOS 2458 [GLONASS-M]",
        "OBJECT_ID": "2009-070C",
        "EPOCH": "2025-03-08T09:46:39.629568",
        "MEAN_MOTION": 2.13082963,
        "ECCENTRICITY": 0.0006992,
        "INCLINATION": 64.7339,
        "RA_OF_ASC_NODE": 86.792,
        "ARG_OF_PERICENTER": 310.9779,
        "MEAN_ANOMALY": 126.9004,
        "EPHEMERIS_TYPE": 0,
        "CLASSIFICATION_TYPE": "U",
        "NORAD_CAT_ID": 36113,
        "ELEMENT_SET_NO": 999,
        "REV_AT_EPOCH": 11853,
        "BSTAR": 0,
        "MEAN_MOTION_DOT": 3.3e-07,
        "MEAN_MOTION_DDOT": 0
    },
    {
        "OBJECT_NAME": "COSMOS 2461 [GLONASS-M]",
        "OBJECT_ID": "2010-007B",
        "EPOCH": "2025-03-10T05:42:08.836128",
        "MEAN_MOTION": 2.13106706,
        "ECCENTRICITY": 0.0021344,
        "INCLINATION": 65.6877,
        "RA_OF_ASC_NODE": 330.1904,
        "ARG_OF_PERICENTER": 359.9448,
        "MEAN_ANOMALY": 183.5946,
        "EPHEMERIS_TYPE": 0,
        "CLASSIFICATION_TYPE": "U",
        "NORAD_CAT_ID": 36401,
        "ELEMENT_SET_NO": 999,
        "REV_AT_EPOCH": 11692,
        "BSTAR": 0,
        "MEAN_MOTION_DOT": -7.1e-07,
        "MEAN_MOTION_DDOT": 0
    },
    {
        "OBJECT_NAME": "COSMOS 2460 [GLONASS-M]",
        "OBJECT_ID": "2010-007C",
        "EPOCH": "2025-03-10T08:12:12.663936",
        "MEAN_MOTION": 2.13106158,
        "ECCENTRICITY": 0.0002096,
        "INCLINATION": 65.673,
        "RA_OF_ASC_NODE": 330.121,
        "ARG_OF_PERICENTER": 8.247,
        "MEAN_ANOMALY": 206.6886,
        "EPHEMERIS_TYPE": 0,
        "CLASSIFICATION_TYPE": "U",
        "NORAD_CAT_ID": 36402,
        "ELEMENT_SET_NO": 999,
        "REV_AT_EPOCH": 11684,
        "BSTAR": 0,
        "MEAN_MOTION_DOT": -7e-07,
        "MEAN_MOTION_DDOT": 0
    },
    {
        "OBJECT_NAME": "COSMOS 2466 [GLONASS-M]",
        "OBJECT_ID": "2010-041A",
        "EPOCH": "2025-03-09T01:08:44.722176",
        "MEAN_MOTION": 2.13112966,
        "ECCENTRICITY": 0.0017118,
        "INCLINATION": 63.8944,
        "RA_OF_ASC_NODE": 206.0218,
        "ARG_OF_PERICENTER": 171.1261,
        "MEAN_ANOMALY": 185.9351,
        "EPHEMERIS_TYPE": 0,
        "CLASSIFICATION_TYPE": "U",
        "NORAD_CAT_ID": 37137,
        "ELEMENT_SET_NO": 999,
        "REV_AT_EPOCH": 11292,
        "BSTAR": 0,
        "MEAN_MOTION_DOT": 2e-08,
        "MEAN_MOTION_DDOT": 0
    },
    {
        "OBJECT_NAME": "COSMOS 2465 [GLONASS-M]",
        "OBJECT_ID": "2010-041B",
        "EPOCH": "2025-03-08T13:21:07.955712",
        "MEAN_MOTION": 2.13098206,
        "ECCENTRICITY": 0.0040387,
        "INCLINATION": 63.9103,
        "RA_OF_ASC_NODE": 206.1883,
        "ARG_OF_PERICENTER": 178.4846,
        "MEAN_ANOMALY": 181.8057,
        "EPHEMERIS_TYPE": 0,
        "CLASSIFICATION_TYPE": "U",
        "NORAD_CAT_ID": 37138,
        "ELEMENT_SET_NO": 999,
        "REV_AT_EPOCH": 11294,
        "BSTAR": 0,
        "MEAN_MOTION_DOT": 1e-07,
        "MEAN_MOTION_DDOT": 0
    }
]