33379,COSMOS 2443 [GLONASS-M],2008,675.74,-1.0,-,65.73,Inactive,0,MEO,Kazakhstan,Russia/USSR,Unknown,Unknown,Unknown,1 33379U 08046B   25067.27491861 -.00000076  00000+0  00000+0 0  9993,2 33379  65.7259 330.6734 0012070 176.0162 289.5523  2.13098289128029,2.13098289,0.001207,MEO
33380,COSMOS 2444 [GLONASS-M],2008,675.7,-1.0,-,65.73,Inactive,0,MEO,Kazakhstan,Russia/USSR,Unknown,Unknown,Unknown,1 33380U 08046C   25068.10808707 -.00000075  00000+0  00000+0 0  9998,2 33380  65.7342 330.6926 0019485 294.6909 243.3313  2.13112157128037,2.13112157,0.0019485,MEO
33466,COSMOS 2447 [GLONASS-M],2008,675.71,-1.0,-,64.55,Inactive,0,MEO,Kazakhstan,Russia/USSR,Unknown,Unknown,Unknown,1 33466U 08067A   25069.20872934  .00000043  00000+0  00000+0 0  9995,2 33466  64.5465  85.3344 0008716 261.4324 118.7402  2.13107751126082,2.13107751,0.0008716,MEO
33467,COSMOS 2449 [GLONASS-M],2008,675.75,-1.0,-,64.54,Inactive,0,MEO,Kazakhstan,Russia/USSR,Unknown,Unknown,Unknown,1 33467U 08067B   25069.24542514  .00000043  00000+0  00000+0 0  9998,2 33467  64.5355  85.2468 0033472 238.9432 120.7801  2.13097327126075,2.13097327,0.0033472,MEO
33468,COSMOS 2448 [GLONASS-M],2008,675.69,-1.0,-,64.54,Inactive,0,MEO,Kazakhstan,Russia/USSR,Unknown,Unknown,Unknown,1 33468U 08067C   25069.02306585  .00000042  00000+0  00000+0 0  9990,2 33468  64.5418  85.2733 0003247 261.1108  98.9050  2.13116284126140,2.13116284,0.0003247,MEO
36113,COSMOS 2458 [GLONASS-M],2009,675.79,-1.0,-,64.73,Inactive,0,MEO,Kazakhstan,Russia/USSR,Unknown,Unknown,Unknown,1 36113U 09070C   25067.40740312  .00000033  00000+0  00000+0 0  9995,2 36113  64.7339  86.7920 0006992 310.9779 126.9004  2.13082963118536,2.13082963,0.0006992,MEO
36401,COSMOS 2461 [GLONASS-M],2010,675.72,1415.0,-,65.69,Inactive,1,MEO,Kazakhstan,Russia/USSR,Commercial/Military,Navigation (Global or Regional Positioning),Proton,1 36401U 10007B   25069.23760227 -.00000071  00000+0  00000+0 0  9990,2 36401  65.6877 330.1904 0021344 359.9448 183.5946  2.13106706116922,2.13106706,0.0021344,MEO
37137,COSMOS 2466 [GLONASS-M],2010,675.7,-1.0,-,63.89,Inactive,0,MEO,Kazakhstan,Russia/USSR,Unknown,Unknown,Unknown,1 37137U 10041A   25068.04773984  .00000002  00000+0  00000+0 0  9990,2 37137  63.8944 206.0218 0017118 171.1261 185.9351  2.13112966112921,2.13112966,0.0017118,MEO
37138,COSMOS 2465 [GLONASS-M],2010,675.74,-1.0,-,63.91,Inactive,0,MEO,Kazakhstan,Russia/USSR,Unknown,Unknown,Unknown,1 37138U 10041B   25067.55634208  .00000010  00000+0  00000+0 0  9990,2 37138  63.9103 206.1883 0040387 178.4846 181.8057  2.13098206112942,2.13098206,0.0040387,MEO
36111,COSMOS 2456 [GLONASS-M],2009,675.73,1415.0,+,64.74,Active,1,MEO,Kazakhstan,Russia/USSR,Commercial/Military,Navigation (Global or Regional Positioning),Proton,1 36111U 09070A   25068.75910431  .00000042  00000+0  00000+0 0  9993,2 36111  64.7445  86.8476 0006296 303.1351  57.6364  2.13103654118536,2.13103654,0.0006296,MEO
36112,COSMOS 2457 [GLONASS-M],2009,675.74,1415.0,+,64.73,Active,1,MEO,Kazakhstan,Russia/USSR,Commercial/Military,Navigation (Global or Regional Positioning),Proton,1 36112U 09070B   25067.27108354  .00000032  00000+0  00000+0 0  9992,2 36112  64.7286  86.7518 0002843 199.0679 231.8432  2.13101057118509,2.13101057,0.0002843,MEO
36402,COSMOS 2460 [GLONASS-M],2010,675.72,1415.0,+,65.67,Active,1,MEO,Kazakhstan,Russia/USSR,Commercial/Military,Navigation (Global or Regional Positioning),Proton,1 36402U 10007C   25069.34181324 -.00000070  00000+0  00000+0 0  9997,2 36402  65.6730 330.1210 0002096   8.2470 206.6886  2.13106158116845,2.13106158,0.0002096,MEO
